[{"OBJECT_NAME":"STARLINK-1271","OBJECT_ID":"2020-012AR","EPOCH":"2026-03-09T06:10:51.660768","MEAN_MOTION":15.30210928,"ECCENTRICITY":0.00014214,"INCLINATION":53.1602,"RA_OF_ASC_NODE":25.9675,"ARG_OF_PERICENTER":94.3231,"MEAN_ANOMALY":265.7932,"EPHEMERIS_TYPE":0,"CLASSIFICATION_TYPE":"U","NORAD_CAT_ID":45217,"ELEMENT_SET_NO":999,"REV_AT_EPOCH":33509,"BSTAR":0.00014486851,"MEAN_MOTION_DOT":3.935e-5,"MEAN_MOTION_DDOT":0},{"OBJECT_NAME":"NUSHSAT1","OBJECT_ID":"2025-052B","EPOCH":"2026-03-09T15:31:41.225952","MEAN_MOTION":15.31903202,"ECCENTRICITY":0.0005501,"INCLINATION":97.4095,"RA_OF_ASC_NODE":325.7239,"ARG_OF_PERICENTER":84.7512,"MEAN_ANOMALY":275.4357,"EPHEMERIS_TYPE":0,"CLASSIFICATION_TYPE":"U","NORAD_CAT_ID":63211,"ELEMENT_SET_NO":999,"REV_AT_EPOCH":5488,"BSTAR":0.00074857,"MEAN_MOTION_DOT":0.00023034,"MEAN_MOTION_DDOT":0}]
